{"type": "FeatureCollection", "features": [ {"type": "Feature", "properties": {"norad_id": 44542, "name": "BEIDOU-3 M24 (C46)", "group": "beidou", "lat": 7.430150197517615, "lon": 3.4262520218106207, "alt_km": 21549.604245510713, "timestamp": "2025-12-19T14:48:36.512964+00:00", "meta": {"OBJECT_NAME": "BEIDOU-3 M24 (C46)", "OBJECT_ID": "2019-061A", "EPOCH": "2025-12-18T19:48:47.972736", "MEAN_MOTION": 1.86229393, "ECCENTRICITY": 0.00096105, "INCLINATION": 54.4002, "RA_OF_ASC_NODE": 188.8106, "ARG_OF_PERICENTER": 25.1866, "MEAN_ANOMALY": 334.925, "EPHEMERIS_TYPE": 0, "CLASSIFICATION_TYPE": "U", "NORAD_CAT_ID": 44542, "ELEMENT_SET_NO": 999, "REV_AT_EPOCH": 4243, "BSTAR": 0, "MEAN_MOTION_DOT": 1.06e-06, "MEAN_MOTION_DDOT": 0}, "tle": {"line1": "1 44542U 19061A   25352.82555524  .00000106  00000+0  00000+0 0  9994", "line2": "2 44542  54.4002 188.8106 0009610  25.1866 334.9250  1.86229393 42434"}}, "geometry": {"type": "Point", "coordinates": [3.4262520218106207, 7.430150197517615]}}, {"type": "Feature", "properties": {"norad_id": 44543, "name": "BEIDOU-3 M23 (C45)", "group": "beidou", "lat": 53.86043772442134, "lon": -92.24676767716471, "alt_km": 21513.25572906513, "timestamp": "2025-12-19T14:48:36.512975+00:00", "meta": {"OBJECT_NAME": "BEIDOU-3 M23 (C45)", "OBJECT_ID": "2019-061B", "EPOCH": "2025-12-19T04:54:38.810304", "MEAN_MOTION": 1.86227724, "ECCENTRICITY": 0.0006055, "INCLINATION": 54.3992, "RA_OF_ASC_NODE": 188.7663, "ARG_OF_PERICENTER": 24.9207, "MEAN_ANOMALY": 142.055, "EPHEMERIS_TYPE": 0, "CLASSIFICATION_TYPE": "U", "NORAD_CAT_ID": 44543, "ELEMENT_SET_NO": 999, "REV_AT_EPOCH": 4244, "BSTAR": 0, "MEAN_MOTION_DOT": 1.04e-06, "MEAN_MOTION_DDOT": 0}, "tle": {"line1": "1 44543U 19061B   25353.20461586  .00000104  00000+0  00000+0 0  9990", "line2": "2 44543  54.3992 188.7663 0006055  24.9207 142.0550  1.86227724 42443"}}, "geometry": {"type": "Point", "coordinates": [-92.24676767716471, 53.86043772442134]}}, {"type": "Feature", "properties": {"norad_id": 44709, "name": "BEIDOU-3 IGSO-3 (C40)", "group": "beidou", "lat": 31.956405558614787, "lon": 77.07556768741452, "alt_km": 35673.8625971389, "timestamp": "2025-12-19T14:48:36.512986+00:00", "meta": {"OBJECT_NAME": "BEIDOU-3 IGSO-3 (C40)", "OBJECT_ID": "2019-073A", "EPOCH": "2025-11-20T07:11:22.740000", "MEAN_MOTION": 1.00250097, "ECCENTRICITY": 0.0044538, "INCLINATION": 55.163, "RA_OF_ASC_NODE": 283.159, "ARG_OF_PERICENTER": 191.5856, "MEAN_ANOMALY": 168.2409, "EPHEMERIS_TYPE": 0, "CLASSIFICATION_TYPE": "U", "NORAD_CAT_ID": 44709, "ELEMENT_SET_NO": 999, "REV_AT_EPOCH": 2236, "BSTAR": 0, "MEAN_MOTION_DOT": -2.06e-06, "MEAN_MOTION_DDOT": 0}, "tle": {"line1": "1 44709U 19073A   25324.29956875 -.00000206  00000+0  00000+0 0  9998", "line2": "2 44709  55.1630 283.1590 0044538 191.5856 168.2409  1.00250097 22360"}}, "geometry": {"type": "Point", "coordinates": [77.07556768741452, 31.956405558614787]}}, {"type": "Feature", "properties": {"norad_id": 44793, "name": "BEIDOU-3 M22 (C44)", "group": "beidou", "lat": -53.356263774425976, "lon": -130.47827328254485, "alt_km": 21538.37273550014, "timestamp": "2025-12-19T14:48:36.513002+00:00", "meta": {"OBJECT_NAME": "BEIDOU-3 M22 (C44)", "OBJECT_ID": "2019-078A", "EPOCH": "2025-12-18T03:05:10.380768", "MEAN_MOTION": 1.86232153, "ECCENTRICITY": 0.00060099, "INCLINATION": 54.1032, "RA_OF_ASC_NODE": 306.1968, "ARG_OF_PERICENTER": 24.2925, "MEAN_ANOMALY": 335.7236, "EPHEMERIS_TYPE": 0, "CLASSIFICATION_TYPE": "U", "NORAD_CAT_ID": 44793, "ELEMENT_SET_NO": 999, "REV_AT_EPOCH": 4127, "BSTAR": 0, "MEAN_MOTION_DOT": -8.5e-07, "MEAN_MOTION_DDOT": 0}, "tle": {"line1": "1 44793U 19078A   25352.12859237 -.00000085  00000+0  00000+0 0  9998", "line2": "2 44793  54.1032 306.1968 0006009  24.2925 335.7236  1.86232153 41270"}}, "geometry": {"type": "Point", "coordinates": [-130.47827328254485, -53.356263774425976]}}, {"type": "Feature", "properties": {"norad_id": 44794, "name": "BEIDOU-3 M21 (C43)", "group": "beidou", "lat": -4.550942855937594, "lon": 129.38991086117971, "alt_km": 21540.62925666611, "timestamp": "2025-12-19T14:48:36.513013+00:00", "meta": {"OBJECT_NAME": "BEIDOU-3 M21 (C43)", "OBJECT_ID": "2019-078B", "EPOCH": "2025-12-16T15:43:55.727904", "MEAN_MOTION": 1.86227668, "ECCENTRICITY": 0.00041169, "INCLINATION": 54.078, "RA_OF_ASC_NODE": 306.2132, "ARG_OF_PERICENTER": 11.942, "MEAN_ANOMALY": 348.0544, "EPHEMERIS_TYPE": 0, "CLASSIFICATION_TYPE": "U", "NORAD_CAT_ID": 44794, "ELEMENT_SET_NO": 999, "REV_AT_EPOCH": 4125, "BSTAR": 0, "MEAN_MOTION_DOT": -9.5e-07, "MEAN_MOTION_DDOT": 0}, "tle": {"line1": "1 44794U 19078B   25350.65550611 -.00000095  00000+0  00000+0 0  9990", "line2": "2 44794  54.0780 306.2132 0004116  11.9420 348.0544  1.86227668 41256"}}, "geometry": {"type": "Point", "coordinates": [129.38991086117971, -4.550942855937594]}}, {"type": "Feature", "properties": {"norad_id": 44864, "name": "BEIDOU-3 M19 (C41)", "group": "beidou", "lat": 17.824057716882788, "lon": 81.07333632473784, "alt_km": 21531.65396420448, "timestamp": "2025-12-19T14:48:36.513025+00:00", "meta": {"OBJECT_NAME": "BEIDOU-3 M19 (C41)", "OBJECT_ID": "2019-090A", "EPOCH": "2025-12-19T01:07:39.122112", "MEAN_MOTION": 1.86231633, "ECCENTRICITY": 0.00181901, "INCLINATION": 56.3984, "RA_OF_ASC_NODE": 68.7523, "ARG_OF_PERICENTER": 285.0515, "MEAN_ANOMALY": 74.1026, "EPHEMERIS_TYPE": 0, "CLASSIFICATION_TYPE": "U", "NORAD_CAT_ID": 44864, "ELEMENT_SET_NO": 999, "REV_AT_EPOCH": 4087, "BSTAR": 0, "MEAN_MOTION_DOT": -5.7e-07, "MEAN_MOTION_DDOT": 0}, "tle": {"line1": "1 44864U 19090A   25353.04698058 -.00000057  00000+0  00000+0 0  9994", "line2": "2 44864  56.3984  68.7523 0018190 285.0515  74.1026  1.86231633 40871"}}, "geometry": {"type": "Point", "coordinates": [81.07333632473784, 17.824057716882788]}}, {"type": "Feature", "properties": {"norad_id": 44865, "name": "BEIDOU-3 M20 (C42)", "group": "beidou", "lat": 51.055051120441384, "lon": -166.43330368053935, "alt_km": 21564.68546644994, "timestamp": "2025-12-19T14:48:36.513036+00:00", "meta": {"OBJECT_NAME": "BEIDOU-3 M20 (C42)", "OBJECT_ID": "2019-090B", "EPOCH": "2025-12-18T13:12:22.451040", "MEAN_MOTION": 1.86231689, "ECCENTRICITY": 0.00154108, "INCLINATION": 56.3994, "RA_OF_ASC_NODE": 68.8029, "ARG_OF_PERICENTER": 297.0214, "MEAN_ANOMALY": 178.7198, "EPHEMERIS_TYPE": 0, "CLASSIFICATION_TYPE": "U", "NORAD_CAT_ID": 44865, "ELEMENT_SET_NO": 999, "REV_AT_EPOCH": 4085, "BSTAR": 0, "MEAN_MOTION_DOT": -6.2e-07, "MEAN_MOTION_DDOT": 0}, "tle": {"line1": "1 44865U 19090B   25352.55025985 -.00000062  00000+0  00000+0 0  9999", "line2": "2 44865  56.3994  68.8029 0015410 297.0214 178.7198  1.86231689 40856"}}, "geometry": {"type": "Point", "coordinates": [-166.43330368053935, 51.055051120441384]}}, {"type": "Feature", "properties": {"norad_id": 45344, "name": "BEIDOU-3 G2 (C60)", "group": "beidou", "lat": -0.563967595196215, "lon": 30.66578600284171, "alt_km": 35789.27838065615, "timestamp": "2025-12-19T14:48:36.513047+00:00", "meta": {"OBJECT_NAME": "BEIDOU-3 G2 (C60)", "OBJECT_ID": "2020-017A", "EPOCH": "2025-12-19T03:22:23.615040", "MEAN_MOTION": 1.00273184, "ECCENTRICITY": 0.00020709, "INCLINATION": 2.509, "RA_OF_ASC_NODE": 43.9944, "ARG_OF_PERICENTER": 233.2652, "MEAN_ANOMALY": 301.3554, "EPHEMERIS_TYPE": 0, "CLASSIFICATION_TYPE": "U", "NORAD_CAT_ID": 45344, "ELEMENT_SET_NO": 999, "REV_AT_EPOCH": 2145, "BSTAR": 0, "MEAN_MOTION_DOT": -1.18e-06, "MEAN_MOTION_DDOT": 0}, "tle": {"line1": "1 45344U 20017A   25353.14055110 -.00000118  00000+0  00000+0 0  9994", "line2": "2 45344   2.5090  43.9944 0002070 233.2652 301.3554  1.00273184 21452"}}, "geometry": {"type": "Point", "coordinates": [30.66578600284171, -0.563967595196215]}}, {"type": "Feature", "properties": {"norad_id": 45807, "name": "BEIDOU-3 G3 (C61)", "group": "beidou", "lat": -0.16407422079552136, "lon": 61.240579711457315, "alt_km": 35767.248905847155, "timestamp": "2025-12-19T14:48:36.513059+00:00", "meta": {"OBJECT_NAME": "BEIDOU-3 G3 (C61)", "OBJECT_ID": "2020-040A", "EPOCH": "2025-12-19T01:48:17.629920", "MEAN_MOTION": 1.00271158, "ECCENTRICITY": 0.00064358, "INCLINATION": 2.006, "RA_OF_ASC_NODE": 66.6361, "ARG_OF_PERICENTER": 309.3807, "MEAN_ANOMALY": 209.5662, "EPHEMERIS_TYPE": 0, "CLASSIFICATION_TYPE": "U", "NORAD_CAT_ID": 45807, "ELEMENT_SET_NO": 999, "REV_AT_EPOCH": 2026, "BSTAR": 0, "MEAN_MOTION_DOT": -3.31e-06, "MEAN_MOTION_DDOT": 0}, "tle": {"line1": "1 45807U 20040A   25353.07520405 -.00000331  00000+0  00000+0 0  9997", "line2": "2 45807   2.0060  66.6361 0006435 309.3807 209.5662  1.00271158 20265"}}, "geometry": {"type": "Point", "coordinates": [61.240579711457315, -0.16407422079552136]}}, {"type": "Feature", "properties": {"norad_id": 56564, "name": "BEIDOU-3 G4 (C62)", "group": "beidou", "lat": 0.18822069991702717, "lon": 110.63871900626023, "alt_km": 35780.10940742101, "timestamp": "2025-12-19T14:48:36.513071+00:00", "meta": {"OBJECT_NAME": "BEIDOU-3 G4 (C62)", "OBJECT_ID": "2023-066A", "EPOCH": "2025-12-19T05:27:56.588256", "MEAN_MOTION": 1.00271628, "ECCENTRICITY": 0.00027315, "INCLINATION": 0.8014, "RA_OF_ASC_NODE": 302.5554, "ARG_OF_PERICENTER": 226.5537, "MEAN_ANOMALY": 161.0177, "EPHEMERIS_TYPE": 0, "CLASSIFICATION_TYPE": "U", "NORAD_CAT_ID": 56564, "ELEMENT_SET_NO": 999, "REV_AT_EPOCH": 959, "BSTAR": 0, "MEAN_MOTION_DOT": -8.5e-07, "MEAN_MOTION_DDOT": 0}, "tle": {"line1": "1 56564U 23066A   25353.22773829 -.00000085  00000+0  00000+0 0  9993", "line2": "2 56564   0.8014 302.5554 0002731 226.5537 161.0177  1.00271628  9591"}}, "geometry": {"type": "Point", "coordinates": [110.63871900626023, 0.18822069991702717]}}]}